{"type": "FeatureCollection", "features": [{"type": "Feature", "properties": {"norad_id": 24876, "name": "GPS BIIR-2  (PRN 13)", "group": "gps-ops", "lat": -52.08425518299892, "lon": 45.24991428189341, "alt_km": 20348.566692941695, "timestamp": "2025-12-20T14:38:02.228688+00:00", "meta": {"OBJECT_NAME": "GPS BIIR-2  (PRN 13)", "OBJECT_ID": "1997-035A", "EPOCH": "2025-12-20T05:04:22.923552", "MEAN_MOTION": 2.0056375, "ECCENTRICITY": 0.00968119, "INCLINATION": 55.8989, "RA_OF_ASC_NODE": 105.5767, "ARG_OF_PERICENTER": 56.9717, "MEAN_ANOMALY": 303.9301, "EPHEMERIS_TYPE": 0, "CLASSIFICATION_TYPE": "U", "NORAD_CAT_ID": 24876, "ELEMENT_SET_NO": 999, "REV_AT_EPOCH": 20836, "BSTAR": 0, "MEAN_MOTION_DOT": -8e-08, "MEAN_MOTION_DDOT": 0}, "tle": {"line1": "1 24876U 97035A   25354.21137643 -.00000008  00000+0  00000+0 0  9994", "line2": "2 24876  55.8989 105.5767 0096811  56.9717 303.9301  2.00563750208360"}}, "geometry": {"type": "Point", "coordinates": [45.24991428189341, -52.08425518299892]}}, {"type": "Feature", "properties": {"norad_id": 26360, "name": "GPS BIIR-4  (PRN 20)", "group": "gps-ops", "lat": 16.939774025599483, "lon": 38.83190336603732, "alt_km": 20256.85504409603, "timestamp": "2025-12-20T14:38:02.228716+00:00", "meta": {"OBJECT_NAME": "GPS BIIR-4  (PRN 20)", "OBJECT_ID": "2000-025A", "EPOCH": "2025-12-20T02:15:34.027776", "MEAN_MOTION": 2.00567172, "ECCENTRICITY": 0.00388878, "INCLINATION": 55.0495, "RA_OF_ASC_NODE": 26.5404, "ARG_OF_PERICENTER": 242.6813, "MEAN_ANOMALY": 125.6074, "EPHEMERIS_TYPE": 0, "CLASSIFICATION_TYPE": "U", "NORAD_CAT_ID": 26360, "ELEMENT_SET_NO": 999, "REV_AT_EPOCH": 18768, "BSTAR": 0, "MEAN_MOTION_DOT": -6.6e-07, "MEAN_MOTION_DDOT": 0}, "tle": {"line1": "1 26360U 00025A   25354.09414384 -.00000066  00000+0  00000+0 0  9997", "line2": "2 26360  55.0495  26.5404 0038887 242.6813 125.6074  2.00567172187683"}}, "geometry": {"type": "Point", "coordinates": [38.83190336603732, 16.939774025599483]}}, {"type": "Feature", "properties": {"norad_id": 26407, "name": "GPS BIIR-5  (PRN 22)", "group": "gps-ops", "lat": -30.808972716995054, "lon": 67.06568063138653, "alt_km": 20142.38958754662, "timestamp": "2025-12-20T14:38:02.228733+00:00", "meta": {"OBJECT_NAME": "GPS BIIR-5  (PRN 22)", "OBJECT_ID": "2000-040A", "EPOCH": "2025-12-20T01:19:00.172704", "MEAN_MOTION": 2.0056811, "ECCENTRICITY": 0.01256107, "INCLINATION": 54.8892, "RA_OF_ASC_NODE": 222.2781, "ARG_OF_PERICENTER": 301.9338, "MEAN_ANOMALY": 237.6446, "EPHEMERIS_TYPE": 0, "CLASSIFICATION_TYPE": "U", "NORAD_CAT_ID": 26407, "ELEMENT_SET_NO": 999, "REV_AT_EPOCH": 18635, "BSTAR": 0, "MEAN_MOTION_DOT": 7.4e-07, "MEAN_MOTION_DDOT": 0}, "tle": {"line1": "1 26407U 00040A   25354.05486311  .00000074  00000+0  00000+0 0  9999", "line2": "2 26407  54.8892 222.2781 0125610 301.9338 237.6446  2.00568110186351"}}, "geometry": {"type": "Point", "coordinates": [67.06568063138653, -30.808972716995054]}}, {"type": "Feature", "properties": {"norad_id": 27663, "name": "GPS BIIR-8  (PRN 16)", "group": "gps-ops", "lat": -4.344294193210917, "lon": -140.9802734052652, "alt_km": 19965.490245748122, "timestamp": "2025-12-20T14:38:02.228747+00:00", "meta": {"OBJECT_NAME": "GPS BIIR-8  (PRN 16)", "OBJECT_ID": "2003-005A", "EPOCH": "2025-12-19T09:46:33.318048", "MEAN_MOTION": 2.00570594, "ECCENTRICITY": 0.014769, "INCLINATION": 54.9218, "RA_OF_ASC_NODE": 222.113, "ARG_OF_PERICENTER": 51.8916, "MEAN_ANOMALY": 156.0709, "EPHEMERIS_TYPE": 0, "CLASSIFICATION_TYPE": "U", "NORAD_CAT_ID": 27663, "ELEMENT_SET_NO": 999, "REV_AT_EPOCH": 16770, "BSTAR": 0, "MEAN_MOTION_DOT": 7.6e-07, "MEAN_MOTION_DDOT": 0}, "tle": {"line1": "1 27663U 03005A   25353.40733007  .00000076  00000+0  00000+0 0  9995", "line2": "2 27663  54.9218 222.1130 0147690  51.8916 156.0709  2.00570594167704"}}, "geometry": {"type": "Point", "coordinates": [-140.9802734052652, -4.344294193210917]}}, {"type": "Feature", "properties": {"norad_id": 28190, "name": "GPS BIIR-11 (PRN 19)", "group": "gps-ops", "lat": 20.75023264542882, "lon": 87.50387504062918, "alt_km": 19899.17839188029, "timestamp": "2025-12-20T14:38:02.228760+00:00", "meta": {"OBJECT_NAME": "GPS BIIR-11 (PRN 19)", "OBJECT_ID": "2004-009A", "EPOCH": "2025-12-20T02:10:39.105696", "MEAN_MOTION": 2.00560582, "ECCENTRICITY": 0.01084506, "INCLINATION": 54.979, "RA_OF_ASC_NODE": 282.9228, "ARG_OF_PERICENTER": 167.7566, "MEAN_ANOMALY": 332.1268, "EPHEMERIS_TYPE": 0, "CLASSIFICATION_TYPE": "U", "NORAD_CAT_ID": 28190, "ELEMENT_SET_NO": 999, "REV_AT_EPOCH": 15935, "BSTAR": 0, "MEAN_MOTION_DOT": -3.4e-07, "MEAN_MOTION_DDOT": 0}, "tle": {"line1": "1 28190U 04009A   25354.09073039 -.00000034  00000+0  00000+0 0  9999", "line2": "2 28190  54.9790 282.9228 0108450 167.7566 332.1268  2.00560582159351"}}, "geometry": {"type": "Point", "coordinates": [87.50387504062918, 20.75023264542882]}}, {"type": "Feature", "properties": {"norad_id": 28474, "name": "GPS BIIR-13 (PRN 02)", "group": "gps-ops", "lat": -26.6316405589046, "lon": 172.4484965180865, "alt_km": 20228.471071090058, "timestamp": "2025-12-20T14:38:02.228772+00:00", "meta": {"OBJECT_NAME": "GPS BIIR-13 (PRN 02)", "OBJECT_ID": "2004-045A", "EPOCH": "2025-12-20T01:27:34.335648", "MEAN_MOTION": 2.00569949, "ECCENTRICITY": 0.01708935, "INCLINATION": 55.237, "RA_OF_ASC_NODE": 332.1114, "ARG_OF_PERICENTER": 309.5726, "MEAN_ANOMALY": 229.0337, "EPHEMERIS_TYPE": 0, "CLASSIFICATION_TYPE": "U", "NORAD_CAT_ID": 28474, "ELEMENT_SET_NO": 999, "REV_AT_EPOCH": 15483, "BSTAR": 0, "MEAN_MOTION_DOT": -7.8e-07, "MEAN_MOTION_DDOT": 0}, "tle": {"line1": "1 28474U 04045A   25354.06081407 -.00000078  00000+0  00000+0 0  9997", "line2": "2 28474  55.2370 332.1114 0170893 309.5726 229.0337  2.00569949154835"}}, "geometry": {"type": "Point", "coordinates": [172.4484965180865, -26.6316405589046]}}, {"type": "Feature", "properties": {"norad_id": 28874, "name": "GPS BIIRM-1 (PRN 17)", "group": "gps-ops", "lat": 5.856007845719387, "lon": 96.25975183359054, "alt_km": 20356.97551529123, "timestamp": "2025-12-20T14:38:02.228784+00:00", "meta": {"OBJECT_NAME": "GPS BIIRM-1 (PRN 17)", "OBJECT_ID": "2005-038A", "EPOCH": "2025-12-20T01:24:11.888352", "MEAN_MOTION": 2.00578006, "ECCENTRICITY": 0.01314124, "INCLINATION": 55.0254, "RA_OF_ASC_NODE": 280.4063, "ARG_OF_PERICENTER": 293.7176, "MEAN_ANOMALY": 202.3277, "EPHEMERIS_TYPE": 0, "CLASSIFICATION_TYPE": "U", "NORAD_CAT_ID": 28874, "ELEMENT_SET_NO": 999, "REV_AT_EPOCH": 14824, "BSTAR": 0, "MEAN_MOTION_DOT": -3e-07, "MEAN_MOTION_DDOT": 0}, "tle": {"line1": "1 28874U 05038A   25354.05847093 -.00000030  00000+0  00000+0 0  9992", "line2": "2 28874  55.0254 280.4063 0131412 293.7176 202.3277  2.00578006148242"}}, "geometry": {"type": "Point", "coordinates": [96.25975183359054, 5.856007845719387]}}, {"type": "Feature", "properties": {"norad_id": 29486, "name": "GPS BIIRM-2 (PRN 31)", "group": "gps-ops", "lat": 52.68506117742222, "lon": -133.13297130442632, "alt_km": 19918.14830681751, "timestamp": "2025-12-20T14:38:02.228796+00:00", "meta": {"OBJECT_NAME": "GPS BIIRM-2 (PRN 31)", "OBJECT_ID": "2006-042A", "EPOCH": "2025-12-19T11:20:28.184352", "MEAN_MOTION": 2.00553919, "ECCENTRICITY": 0.0107309, "INCLINATION": 54.695, "RA_OF_ASC_NODE": 158.4736, "ARG_OF_PERICENTER": 52.1217, "MEAN_ANOMALY": 283.3875, "EPHEMERIS_TYPE": 0, "CLASSIFICATION_TYPE": "U", "NORAD_CAT_ID": 29486, "ELEMENT_SET_NO": 999, "REV_AT_EPOCH": 14078, "BSTAR": 0, "MEAN_MOTION_DOT": 6.9e-07, "MEAN_MOTION_DDOT": 0}, "tle": {"line1": "1 29486U 06042A   25353.47254843  .00000069  00000+0  00000+0 0  9999", "line2": "2 29486  54.6950 158.4736 0107309  52.1217 283.3875  2.00553919140782"}}, "geometry": {"type": "Point", "coordinates": [-133.13297130442632, 52.68506117742222]}}, {"type": "Feature", "properties": {"norad_id": 29601, "name": "GPS BIIRM-3 (PRN 12)", "group": "gps-ops", "lat": 35.022761949309384, "lon": 11.665035965118852, "alt_km": 20019.61104454886, "timestamp": "2025-12-20T14:38:02.228808+00:00", "meta": {"OBJECT_NAME": "GPS BIIRM-3 (PRN 12)", "OBJECT_ID": "2006-052A", "EPOCH": "2025-12-19T22:13:29.754912", "MEAN_MOTION": 2.00574126, "ECCENTRICITY": 0.00879643, "INCLINATION": 54.9691, "RA_OF_ASC_NODE": 221.1129, "ARG_OF_PERICENTER": 87.52, "MEAN_ANOMALY": 273.5849, "EPHEMERIS_TYPE": 0, "CLASSIFICATION_TYPE": "U", "NORAD_CAT_ID": 29601, "ELEMENT_SET_NO": 999, "REV_AT_EPOCH": 13981, "BSTAR": 0, "MEAN_MOTION_DOT": 7.6e-07, "MEAN_MOTION_DDOT": 0}, "tle": {"line1": "1 29601U 06052A   25353.92603883  .00000076  00000+0  00000+0 0  9999", "line2": "2 29601  54.9691 221.1129 0087964  87.5200 273.5849  2.00574126139815"}}, "geometry": {"type": "Point", "coordinates": [11.665035965118852, 35.022761949309384]}}, {"type": "Feature", "properties": {"norad_id": 32260, "name": "GPS BIIRM-4 (PRN 15)", "group": "gps-ops", "lat": -53.768329025532395, "lon": 4.634381161421364, "alt_km": 20617.56045522409, "timestamp": "2025-12-20T14:38:02.228820+00:00", "meta": {"OBJECT_NAME": "GPS BIIRM-4 (PRN 15)", "OBJECT_ID": "2007-047A", "EPOCH": "2025-12-19T17:36:20.095488", "MEAN_MOTION": 2.00564284, "ECCENTRICITY": 0.01640625, "INCLINATION": 53.9598, "RA_OF_ASC_NODE": 87.4696, "ARG_OF_PERICENTER": 85.3303, "MEAN_ANOMALY": 276.5412, "EPHEMERIS_TYPE": 0, "CLASSIFICATION_TYPE": "U", "NORAD_CAT_ID": 32260, "ELEMENT_SET_NO": 999, "REV_AT_EPOCH": 13321, "BSTAR": 0, "MEAN_MOTION_DOT": -3.5e-07, "MEAN_MOTION_DDOT": 0}, "tle": {"line1": "1 32260U 07047A   25353.73356592 -.00000035  00000+0  00000+0 0  9996", "line2": "2 32260  53.9598  87.4696 0164062  85.3303 276.5412  2.00564284133213"}}, "geometry": {"type": "Point", "coordinates": [4.634381161421364, -53.768329025532395]}}]}